[{"OBJECT_NAME":"IRIDE FM3","OBJECT_ID":"2025-276AH","EPOCH":"2026-03-09T16:50:39.561792","MEAN_MOTION":15.19640747,"ECCENTRICITY":6.614e-5,"INCLINATION":97.4248,"RA_OF_ASC_NODE":144.0388,"ARG_OF_PERICENTER":25.5203,"MEAN_ANOMALY":334.6065,"EPHEMERIS_TYPE":0,"CLASSIFICATION_TYPE":"U","NORAD_CAT_ID":66697,"ELEMENT_SET_NO":999,"REV_AT_EPOCH":1532,"BSTAR":0.00053468089,"MEAN_MOTION_DOT":0.00011338,"MEAN_MOTION_DDOT":0},{"OBJECT_NAME":"OBJECT K","OBJECT_ID":"2021-102K","EPOCH":"2026-03-09T15:22:06.576960","MEAN_MOTION":15.21189011,"ECCENTRICITY":0.0018364,"INCLINATION":97.3391,"RA_OF_ASC_NODE":112.3952,"ARG_OF_PERICENTER":201.1729,"MEAN_ANOMALY":158.8749,"EPHEMERIS_TYPE":0,"CLASSIFICATION_TYPE":"U","NORAD_CAT_ID":49404,"ELEMENT_SET_NO":999,"REV_AT_EPOCH":23874,"BSTAR":0.00026722,"MEAN_MOTION_DOT":5.916e-5,"MEAN_MOTION_DDOT":0}]
